NORAD_CAT_ID,OBJECT_NAME,OBJECT_TYPE,EPOCH,MEAN_MOTION,ECCENTRICITY,INCLINATION,RA_OF_ASC_NODE,ARG_OF_PERICENTER,MEAN_ANOMALY,BSTAR,MEAN_MOTION_DOT,MEAN_MOTION_DDOT,TLE_LINE0,TLE_LINE1,TLE_LINE2,SEMIMAJOR_AXIS,PERIOD,APOGEE,PERIGEE,DECAYED
51981.0,STARLINK-3635,PAYLOAD,2024-01-22 22:48:42,15.08835427,0.0001791,53.2187,286.0402,114.6801,245.4378,8.0062e-06,-1.61e-06,0.0,0 STARLINK-3635,1 51981U 22025AB  24022.95049222 -.00000161  00000-0  80062-5 0  9998,2 51981  53.2187 286.0402 0001791 114.6801 245.4378 15.08835427103799,6917.894,95.438,540.998,538.52,0.0
51981.0,STARLINK-3635,PAYLOAD,2024-01-23 00:24:05,15.08839941,0.0002039,53.2185,285.743,112.7058,247.415,-5.7461e-05,-1.203e-05,0.0,0 STARLINK-3635,1 51981U 22025AB  24023.01673190 -.00001203  00000-0 -57461-4 0  9998,2 51981  53.2185 285.7430 0002039 112.7058 247.4150 15.08839941104902,6917.881,95.438,541.156,538.335,0.0
51981.0,STARLINK-3635,PAYLOAD,2024-01-23 22:39:29,15.08842021,0.0001502,53.2176,281.5748,104.0718,256.0441,5.0769e-05,5.2e-06,0.0,0 STARLINK-3635,1 51981U 22025AB  24023.94408852  .00000520  00000-0  50769-4 0  9994,2 51981  53.2176 281.5748 0001502 104.0718 256.0441 15.08842021103944,6917.874,95.437,540.778,538.7,0.0
51981.0,STARLINK-3635,PAYLOAD,2024-01-24 22:30:16,15.08838709,0.0001356,53.2173,277.1165,96.3817,263.733,2.0225e-05,3.4e-07,0.0,0 STARLINK-3635,1 51981U 22025AB  24024.93769397  .00000034  00000-0  20225-4 0  9992,2 51981  53.2173 277.1165 0001356  96.3817 263.7330 15.08838709104092,6917.884,95.438,540.687,538.811,0.0
51981.0,STARLINK-3635,PAYLOAD,2024-01-25 00:05:39,15.08839006,0.0001315,53.2171,276.8191,89.2552,270.859,1.8249e-05,3e-08,0.0,0 STARLINK-3635,1 51981U 22025AB  24025.00393411  .00000003  00000-0  18249-4 0  9990,2 51981  53.2171 276.8191 0001315  89.2552 270.8590 15.08839006105209,6917.883,95.438,540.658,538.839,0.0
51981.0,STARLINK-3635,PAYLOAD,2024-01-25 22:21:04,15.08838845,0.0001314,53.2166,272.6537,77.1109,283.003,-4.9681e-05,-1.078e-05,0.0,0 STARLINK-3635,1 51981U 22025AB  24025.93129924 -.00001078  00000-0 -49681-4 0  9997,2 51981  53.2166 272.6537 0001314  77.1109 283.0030 15.08838845104242,6917.884,95.438,540.658,538.84,0.0
51981.0,STARLINK-3635,PAYLOAD,2024-01-25 23:56:27,15.08791218,0.0001732,53.2179,272.3604,78.0359,282.0827,0.00060771,9.384e-05,0.0,0 STARLINK-3635,1 51981U 22025AB  24025.99754625  .00009384  00000-0  60771-3 0  9993,2 51981  53.2179 272.3604 0001732  78.0359 282.0827 15.08791218105357,6918.03,95.441,541.093,538.696,0.0
51981.0,STARLINK-3635,PAYLOAD,2024-01-26 22:11:50,15.08841352,0.0001685,53.2173,268.2001,68.6491,291.4681,0.00011234,1.5e-05,0.0,0 STARLINK-3635,1 51981U 22025AB  24026.92489428  .00001500  00000-0  11234-3 0  9995,2 51981  53.2173 268.2001 0001685  68.6491 291.4681 15.08841352105497,6917.876,95.437,540.907,538.576,0.0
51981.0,STARLINK-3635,PAYLOAD,2024-01-27 22:02:37,15.08844797,0.000137,53.2158,263.7435,88.9495,271.1654,5.2666e-05,5.5e-06,0.0,0 STARLINK-3635,1 51981U 22025AB  24027.91849172  .00000550  00000-0  52666-4 0  9990,2 51981  53.2158 263.7435 0001370  88.9495 271.1654 15.08844797104547,6917.866,95.437,540.678,538.783,0.0
51981.0,STARLINK-3635,PAYLOAD,2024-01-28 01:13:23,15.08846503,0.0001496,53.2166,263.1395,81.0905,279.0257,6.3615e-05,7.25e-06,0.0,0 STARLINK-3635,1 51981U 22025AB  24028.05096947  .00000725  00000-0  63615-4 0  9990,2 51981  53.2166 263.1395 0001496  81.0905 279.0257 15.08846503105661,6917.861,95.437,540.76,538.691,0.0
51981.0,STARLINK-3635,PAYLOAD,2024-01-28 18:42:38,15.08840305,0.0001631,53.2176,259.8657,97.5892,262.5286,-2.0569e-05,-6.15e-06,0.0,0 STARLINK-3635,1 51981U 22025AB  24028.77961427 -.00000615  00000-0 -20569-4 0  9994,2 51981  53.2176 259.8657 0001631  97.5892 262.5286 15.08840305105778,6917.879,95.438,540.873,538.616,0.0
51981.0,STARLINK-3635,PAYLOAD,2024-01-28 21:53:24,15.08839721,0.0001562,53.2175,259.2707,99.0272,261.0896,-2.745e-05,-7.25e-06,0.0,0 STARLINK-3635,1 51981U 22025AB  24028.91209449 -.00000725  00000-0 -27450-4 0  9997,2 51981  53.2175 259.2707 0001562  99.0272 261.0896 15.08839721104690,6917.881,95.438,540.827,538.666,0.0
51981.0,STARLINK-3635,PAYLOAD,2024-01-30 00:54:57,15.08840321,0.0001581,53.2179,254.2152,106.4889,253.6276,1.7214e-05,-1.4e-07,0.0,0 STARLINK-3635,1 51981U 22025AB  24030.03817128 -.00000014  00000-0  17214-4 0  9999,2 51981  53.2179 254.2152 0001581 106.4889 253.6276 15.08840321105969,6917.879,95.438,540.838,538.651,0.0
51981.0,STARLINK-3635,PAYLOAD,2024-01-30 19:59:36,15.0883511,0.0001371,53.2164,250.646,93.6883,266.4266,1.1888e-05,-9.9e-07,0.0,0 STARLINK-3635,1 51981U 22025AB  24030.83305689 -.00000099  00000-0  11888-4 0  9995,2 51981  53.2164 250.6460 0001371  93.6883 266.4266 15.08835110106088,6917.895,95.438,540.709,538.812,0.0
51981.0,STARLINK-3635,PAYLOAD,2024-01-30 21:34:59,15.08838645,0.0001246,53.2164,250.3547,82.0363,278.0771,3.0471e-05,1.97e-06,0.0,0 STARLINK-3635,1 51981U 22025AB  24030.89929503  .00000197  00000-0  30471-4 0  9995,2 51981  53.2164 250.3547 0001246  82.0363 278.0771 15.08838645104991,6917.885,95.438,540.611,538.888,0.0
51981.0,STARLINK-3635,PAYLOAD,2024-02-01 13:19:37,15.08833143,0.0001018,53.2168,242.9215,92.3335,267.7774,5.521e-05,5.91e-06,0.0,0 STARLINK-3635,1 51981U 22025AB  24032.55530056  .00000591  00000-0  55210-4 0  9997,2 51981  53.2168 242.9215 0001018  92.3335 267.7774 15.08833143105249,6917.901,95.438,540.471,539.062,0.0
51981.0,STARLINK-3635,PAYLOAD,2024-02-01 18:05:47,15.08837126,0.0001313,53.2166,242.0291,98.3975,261.7166,1.4234e-05,-6.1e-07,0.0,0 STARLINK-3635,1 51981U 22025AB  24032.75402084 -.00000061  00000-0  14234-4 0  9992,2 51981  53.2166 242.0291 0001313  98.3975 261.7166 15.08837126106375,6917.889,95.438,540.662,538.846,0.0
51981.0,STARLINK-3635,PAYLOAD,2024-02-01 22:51:56,15.08838207,0.0001225,53.2164,241.1366,87.7774,272.3358,5.5251e-05,5.92e-06,0.0,0 STARLINK-3635,1 51981U 22025AB  24032.95273926  .00000592  00000-0  55251-4 0  9997,2 51981  53.2164 241.1366 0001225  87.7774 272.3358 15.08838207105301,6917.886,95.438,540.598,538.903,0.0
51981.0,STARLINK-3635,PAYLOAD,2024-02-02 19:31:57,15.08839165,0.0001416,53.2167,237.2709,97.9167,262.1986,5.5615e-05,5.97e-06,0.0,0 STARLINK-3635,1 51981U 22025AB  24033.81385939  .00000597  00000-0  55615-4 0  9990,2 51981  53.2167 237.2709 0001416  97.9167 262.1986 15.08839165106536,6917.883,95.438,540.728,538.768,0.0
51981.0,STARLINK-3635,PAYLOAD,2024-02-02 21:07:20,15.08839234,0.0001355,53.2165,236.9734,95.1762,264.9385,4.8589e-05,4.85e-06,0.0,0 STARLINK-3635,1 51981U 22025AB  24033.88009969  .00000485  00000-0  48589-4 0  9991,2 51981  53.2165 236.9734 0001355  95.1762 264.9385 15.08839234105440,6917.883,95.438,540.685,538.81,0.0
51981.0,STARLINK-3635,PAYLOAD,2024-02-02 22:42:43,15.08840253,0.0001364,53.2165,236.6759,95.9678,264.147,5.609e-05,6.05e-06,0.0,0 STARLINK-3635,1 51981U 22025AB  24033.94633878  .00000605  00000-0  56090-4 0  9990,2 51981  53.2165 236.6759 0001364  95.9678 264.1470 15.08840253105459,6917.88,95.438,540.688,538.801,0.0
51981.0,STARLINK-3635,PAYLOAD,2024-02-03 19:22:44,15.0883775,0.0001383,53.2165,232.8095,93.5877,266.5273,2.7192e-05,1.45e-06,0.0,0 STARLINK-3635,1 51981U 22025AB  24034.80746233  .00000145  00000-0  27192-4 0  9996,2 51981  53.2165 232.8095 0001383  93.5877 266.5273 15.08837750105585,6917.887,95.438,540.709,538.796,0.0
51981.0,STARLINK-3635,PAYLOAD,2024-02-03 22:33:30,15.08839704,0.0001425,53.2167,232.2147,92.0934,268.0222,4.3344e-05,4.02e-06,0.0,0 STARLINK-3635,1 51981U 22025AB  24034.93994055  .00000402  00000-0  43344-4 0  9990,2 51981  53.2167 232.2147 0001425  92.0934 268.0222 15.08839704106701,6917.881,95.438,540.732,538.76,0.0
51981.0,STARLINK-3635,PAYLOAD,2024-02-04 22:24:17,15.08845276,0.0001397,53.2165,227.753,93.3368,266.7784,5.7197e-05,6.23e-06,0.0,0 STARLINK-3635,1 51981U 22025AB  24035.93353493  .00000623  00000-0  57197-4 0  9992,2 51981  53.2165 227.7530 0001397  93.3368 266.7784 15.08845276105750,6917.864,95.437,540.696,538.763,0.0
51981.0,STARLINK-3635,PAYLOAD,2024-02-05 06:21:13,15.08841848,0.000136,53.2165,226.2656,93.7999,266.3148,4.2743e-05,3.92e-06,0.0,0 STARLINK-3635,1 51981U 22025AB  24036.26473688  .00000392  00000-0  42743-4 0  9992,2 51981  53.2165 226.2656 0001360  93.7999 266.3148 15.08841848106906,6917.875,95.437,540.681,538.799,0.0
51981.0,STARLINK-3635,PAYLOAD,2024-02-05 19:04:18,15.08839023,0.0001428,53.2171,223.8873,95.6172,264.4983,9.5179e-06,-1.36e-06,0.0,0 STARLINK-3635,1 51981U 22025AB  24036.79466007 -.00000136  00000-0  95179-5 0  9996,2 51981  53.2171 223.8873 0001428  95.6172 264.4983 15.08839023105880,6917.883,95.438,540.736,538.761,0.0
51981.0,STARLINK-3635,PAYLOAD,2024-02-06 18:55:05,15.08832438,0.000122,53.2176,219.4273,85.9299,274.1832,0.00019711,2.85e-05,0.0,0 STARLINK-3635,1 51981U 22025AB  24037.78825622  .00002850  00000-0  19711-3 0  9998,2 51981  53.2176 219.4273 0001220  85.9299 274.1832 15.08832438107136,6917.904,95.438,540.612,538.925,0.0
51981.0,STARLINK-3635,PAYLOAD,2024-02-07 12:24:19,15.08839266,0.0001498,53.2171,216.1564,70.8241,289.2913,5.9204e-05,6.54e-06,0.0,0 STARLINK-3635,1 51981U 22025AB  24038.51689805  .00000654  00000-0  59204-4 0  9993,2 51981  53.2171 216.1564 0001498  70.8241 289.2913 15.08839266106148,6917.883,95.438,540.784,538.711,0.0
51981.0,STARLINK-3635,PAYLOAD,2024-02-07 18:45:53,15.08831589,0.0001126,53.2165,214.9675,84.0101,276.1019,-3.7217e-06,-3.47e-06,0.0,0 STARLINK-3635,1 51981U 22025AB  24038.78186504 -.00000347  00000-0 -37217-5 0  9992,2 51981  53.2165 214.9675 0001126  84.0101 276.1019 15.08831589107288,6917.906,95.438,540.55,538.992,0.0
51981.0,STARLINK-3635,PAYLOAD,2024-02-08 10:39:44,15.08834946,0.0001132,53.216,211.9942,88.2304,271.8818,-7.8094e-05,-1.53e-05,0.0,0 STARLINK-3635,1 51981U 22025AB  24039.44426974 -.00001530  00000-0 -78094-4 0  9996,2 51981  53.2160 211.9942 0001132  88.2304 271.8818 15.08834946106283,6917.896,95.438,540.544,538.978,0.0
